STARLINK-2206
1 17420C 21006H   21326.11477096  .01240997  00000-0  10355-1 0  3266
2 17420  97.4939  26.3168 0001826 207.6562 187.0114 15.68806229    11
